COSMOS 1892             
1 18421U 87088A   25308.42768529  .00258019  23836-4  72431-3 0  9999
2 18421  82.4679  86.8863 0005625 302.9290  57.1442 15.93481600 85188
SL-14 R/B               
1 18749U 88001B   25308.44851951  .00000593  00000+0  66066-4 0  9995
2 18749  82.5107 313.1709 0016606 294.8264  65.1224 14.85360246 23433
COSMOS 1933             
1 18958U 88020A   25308.29443014  .00004383  00000+0  22256-3 0  9991
2 18958  82.5166  14.8492 0002882 276.7108  83.3797 15.16654304 31219
SL-3 R/B                
1 19046U 88032B   25308.57454579  .00006231  00000+0  30606-3 0  9994
2 19046  97.5037 287.5831 0025562 313.1939  46.7159 15.18138781 33119
SL-16 R/B               
1 19120U 88039B   25308.48503280  .00000028  00000+0  35734-4 0  9994
2 19120  71.0149 333.2872 0021624 178.4780 181.6415 14.19586263940616
COSMOS 1953             
1 19210U 88050A   25308.42529047  .00006073  00000+0  23246-3 0  9990
2 19210  82.5058 284.0122 0011169 194.6178 165.4739 15.26306719 18662
SL-8 R/B                
1 19257U 88053B   25308.52552981  .00000315  00000+0  11062-3 0  9994
2 19257  74.0480 343.1526 0020411 198.5691 312.4289 14.38823799958599
COSMOS 1975             
1 19573U 88093A   25308.29056537  .00011861  00000+0  46566-3 0  9994
2 19573  82.5216 243.2891 0009374 250.6662 109.3563 15.25551582   275
SL-14 R/B               
1 19574U 88093B   25308.57726400  .00000508  00000+0  55832-4 0  9992
2 19574  82.5305 159.4799 0022351  91.8576 298.4561 14.85490130982463
SL-16 R/B               
1 19650U 88102B   25308.45630646 -.00000063  00000+0 -76891-5 0  9998
2 19650  71.0009  54.9921 0015207 210.1077 149.9174 14.16130955909168
INTERCOSMOS 24          
1 20261U 89080A   25308.60672591  .00000680  00000+0  20022-3 0  9992
2 20261  82.6087 185.7483 1187782 222.9942 127.2183 12.59354054651053
SL-14 R/B               
1 20262U 89080C   25308.33872926  .00000267  00000+0  70569-4 0  9990
2 20262  82.5916 253.6638 1231475 111.3038 262.3851 12.50372496644480
