CCSDS_OMM_VERS = 2.0
CREATION_DATE  = 
ORIGINATOR     = 

OBJECT_NAME    = COSMOS 1892
OBJECT_ID      = 1987-088A
CENTER_NAME    = EARTH
REF_FRAME      = TEME
TIME_SYSTEM    = UTC
MEAN_ELEMENT_THEORY = SGP/SGP4

EPOCH          = 2025-11-04T10:15:52.009056
MEAN_MOTION    = 15.93481600
ECCENTRICITY   = .00056258
INCLINATION    = 82.4679
RA_OF_ASC_NODE = 86.8863
ARG_OF_PERICENTER = 302.9290
MEAN_ANOMALY   = 57.1442

EPHEMERIS_TYPE = 0
CLASSIFICATION_TYPE = U
NORAD_CAT_ID   = 18421
ELEMENT_SET_NO = 999
REV_AT_EPOCH   = 8518
BSTAR          = .72431119E-3
MEAN_MOTION_DOT = .258019E-2
MEAN_MOTION_DDOT = .23836236E-4

CCSDS_OMM_VERS = 2.0
CREATION_DATE  = 
ORIGINATOR     = 

OBJECT_NAME    = SL-14 R/B
OBJECT_ID      = 1988-001B
CENTER_NAME    = EARTH
REF_FRAME      = TEME
TIME_SYSTEM    = UTC
MEAN_ELEMENT_THEORY = SGP/SGP4

EPOCH          = 2025-11-04T10:45:52.085664
MEAN_MOTION    = 14.85360246
ECCENTRICITY   = .00166064
INCLINATION    = 82.5107
RA_OF_ASC_NODE = 313.1709
ARG_OF_PERICENTER = 294.8264
MEAN_ANOMALY   = 65.1224

EPHEMERIS_TYPE = 0
CLASSIFICATION_TYPE = U
NORAD_CAT_ID   = 18749
ELEMENT_SET_NO = 999
REV_AT_EPOCH   = 2343
BSTAR          = .66066393E-4
MEAN_MOTION_DOT = .593E-5
MEAN_MOTION_DDOT = 0

CCSDS_OMM_VERS = 2.0
CREATION_DATE  = 
ORIGINATOR     = 

OBJECT_NAME    = COSMOS 1933
OBJECT_ID      = 1988-020A
CENTER_NAME    = EARTH
REF_FRAME      = TEME
TIME_SYSTEM    = UTC
MEAN_ELEMENT_THEORY = SGP/SGP4

EPOCH          = 2025-11-04T07:03:58.764096
MEAN_MOTION    = 15.16654304
ECCENTRICITY   = .0002882
INCLINATION    = 82.5166
RA_OF_ASC_NODE = 14.8492
ARG_OF_PERICENTER = 276.7108
MEAN_ANOMALY   = 83.3797

EPHEMERIS_TYPE = 0
CLASSIFICATION_TYPE = U
NORAD_CAT_ID   = 18958
ELEMENT_SET_NO = 999
REV_AT_EPOCH   = 3121
BSTAR          = .22256E-3
MEAN_MOTION_DOT = .4383E-4
MEAN_MOTION_DDOT = 0

CCSDS_OMM_VERS = 2.0
CREATION_DATE  = 
ORIGINATOR     = 

OBJECT_NAME    = SL-3 R/B
OBJECT_ID      = 1988-032B
CENTER_NAME    = EARTH
REF_FRAME      = TEME
TIME_SYSTEM    = UTC
MEAN_ELEMENT_THEORY = SGP/SGP4

EPOCH          = 2025-11-04T13:47:20.756256
MEAN_MOTION    = 15.18138781
ECCENTRICITY   = .00255625
INCLINATION    = 97.5037
RA_OF_ASC_NODE = 287.5831
ARG_OF_PERICENTER = 313.1939
MEAN_ANOMALY   = 46.7159

EPHEMERIS_TYPE = 0
CLASSIFICATION_TYPE = U
NORAD_CAT_ID   = 19046
ELEMENT_SET_NO = 999
REV_AT_EPOCH   = 3311
BSTAR          = .30605584E-3
MEAN_MOTION_DOT = .6231E-4
MEAN_MOTION_DDOT = 0

CCSDS_OMM_VERS = 2.0
CREATION_DATE  = 
ORIGINATOR     = 

OBJECT_NAME    = SL-16 R/B
OBJECT_ID      = 1988-039B
CENTER_NAME    = EARTH
REF_FRAME      = TEME
TIME_SYSTEM    = UTC
MEAN_ELEMENT_THEORY = SGP/SGP4

EPOCH          = 2025-11-04T11:38:26.833920
MEAN_MOTION    = 14.19586263
ECCENTRICITY   = .00216242
INCLINATION    = 71.0149
RA_OF_ASC_NODE = 333.2872
ARG_OF_PERICENTER = 178.4780
MEAN_ANOMALY   = 181.6415

EPHEMERIS_TYPE = 0
CLASSIFICATION_TYPE = U
NORAD_CAT_ID   = 19120
ELEMENT_SET_NO = 999
REV_AT_EPOCH   = 94061
BSTAR          = .3573358E-4
MEAN_MOTION_DOT = .28E-6
MEAN_MOTION_DDOT = 0

CCSDS_OMM_VERS = 2.0
CREATION_DATE  = 
ORIGINATOR     = 

OBJECT_NAME    = COSMOS 1953
OBJECT_ID      = 1988-050A
CENTER_NAME    = EARTH
REF_FRAME      = TEME
TIME_SYSTEM    = UTC
MEAN_ELEMENT_THEORY = SGP/SGP4

EPOCH          = 2025-11-04T10:12:25.096608
MEAN_MOTION    = 15.26306719
ECCENTRICITY   = .00111694
INCLINATION    = 82.5058
RA_OF_ASC_NODE = 284.0122
ARG_OF_PERICENTER = 194.6178
MEAN_ANOMALY   = 165.4739

EPHEMERIS_TYPE = 0
CLASSIFICATION_TYPE = U
NORAD_CAT_ID   = 19210
ELEMENT_SET_NO = 999
REV_AT_EPOCH   = 1866
BSTAR          = .23245908E-3
MEAN_MOTION_DOT = .6073E-4
MEAN_MOTION_DDOT = 0

CCSDS_OMM_VERS = 2.0
CREATION_DATE  = 
ORIGINATOR     = 

OBJECT_NAME    = SL-8 R/B
OBJECT_ID      = 1988-053B
CENTER_NAME    = EARTH
REF_FRAME      = TEME
TIME_SYSTEM    = UTC
MEAN_ELEMENT_THEORY = SGP/SGP4

EPOCH          = 2025-11-04T12:36:45.775584
MEAN_MOTION    = 14.38823799
ECCENTRICITY   = .00204113
INCLINATION    = 74.0480
RA_OF_ASC_NODE = 343.1526
ARG_OF_PERICENTER = 198.5691
MEAN_ANOMALY   = 312.4289

EPHEMERIS_TYPE = 0
CLASSIFICATION_TYPE = U
NORAD_CAT_ID   = 19257
ELEMENT_SET_NO = 999
REV_AT_EPOCH   = 95859
BSTAR          = .11061764E-3
MEAN_MOTION_DOT = .315E-5
MEAN_MOTION_DDOT = 0

CCSDS_OMM_VERS = 2.0
CREATION_DATE  = 
ORIGINATOR     = 

OBJECT_NAME    = COSMOS 1975
OBJECT_ID      = 1988-093A
CENTER_NAME    = EARTH
REF_FRAME      = TEME
TIME_SYSTEM    = UTC
MEAN_ELEMENT_THEORY = SGP/SGP4

EPOCH          = 2025-11-04T06:58:24.847968
MEAN_MOTION    = 15.25551582
ECCENTRICITY   = .0009374
INCLINATION    = 82.5216
RA_OF_ASC_NODE = 243.2891
ARG_OF_PERICENTER = 250.6662
MEAN_ANOMALY   = 109.3563

EPHEMERIS_TYPE = 0
CLASSIFICATION_TYPE = U
NORAD_CAT_ID   = 19573
ELEMENT_SET_NO = 999
REV_AT_EPOCH   = 27
BSTAR          = .46566E-3
MEAN_MOTION_DOT = .11861E-3
MEAN_MOTION_DDOT = 0

CCSDS_OMM_VERS = 2.0
CREATION_DATE  = 
ORIGINATOR     = 

OBJECT_NAME    = SL-14 R/B
OBJECT_ID      = 1988-093B
CENTER_NAME    = EARTH
REF_FRAME      = TEME
TIME_SYSTEM    = UTC
MEAN_ELEMENT_THEORY = SGP/SGP4

EPOCH          = 2025-11-04T13:51:15.609600
MEAN_MOTION    = 14.85490130
ECCENTRICITY   = .00223512
INCLINATION    = 82.5305
RA_OF_ASC_NODE = 159.4799
ARG_OF_PERICENTER = 91.8576
MEAN_ANOMALY   = 298.4561

EPHEMERIS_TYPE = 0
CLASSIFICATION_TYPE = U
NORAD_CAT_ID   = 19574
ELEMENT_SET_NO = 999
REV_AT_EPOCH   = 98246
BSTAR          = .55832458E-4
MEAN_MOTION_DOT = .508E-5
MEAN_MOTION_DDOT = 0

CCSDS_OMM_VERS = 2.0
CREATION_DATE  = 
ORIGINATOR     = 

OBJECT_NAME    = SL-16 R/B
OBJECT_ID      = 1988-102B
CENTER_NAME    = EARTH
REF_FRAME      = TEME
TIME_SYSTEM    = UTC
MEAN_ELEMENT_THEORY = SGP/SGP4

EPOCH          = 2025-11-04T10:57:04.878144
MEAN_MOTION    = 14.16130955
ECCENTRICITY   = .00152078
INCLINATION    = 71.0009
RA_OF_ASC_NODE = 54.9921
ARG_OF_PERICENTER = 210.1077
MEAN_ANOMALY   = 149.9174

EPHEMERIS_TYPE = 0
CLASSIFICATION_TYPE = U
NORAD_CAT_ID   = 19650
ELEMENT_SET_NO = 999
REV_AT_EPOCH   = 90916
BSTAR          = -.7689059E-5
MEAN_MOTION_DOT = -.63E-6
MEAN_MOTION_DDOT = 0

CCSDS_OMM_VERS = 2.0
CREATION_DATE  = 
ORIGINATOR     = 

OBJECT_NAME    = INTERCOSMOS 24
OBJECT_ID      = 1989-080A
CENTER_NAME    = EARTH
REF_FRAME      = TEME
TIME_SYSTEM    = UTC
MEAN_ELEMENT_THEORY = SGP/SGP4

EPOCH          = 2025-11-04T14:33:41.118624
MEAN_MOTION    = 12.59354054
ECCENTRICITY   = .11877825
INCLINATION    = 82.6087
RA_OF_ASC_NODE = 185.7483
ARG_OF_PERICENTER = 222.9942
MEAN_ANOMALY   = 127.2183

EPHEMERIS_TYPE = 0
CLASSIFICATION_TYPE = U
NORAD_CAT_ID   = 20261
ELEMENT_SET_NO = 999
REV_AT_EPOCH   = 65105
BSTAR          = .20022149E-3
MEAN_MOTION_DOT = .68E-5
MEAN_MOTION_DDOT = 0

CCSDS_OMM_VERS = 2.0
CREATION_DATE  = 
ORIGINATOR     = 

OBJECT_NAME    = SL-14 R/B
OBJECT_ID      = 1989-080C
CENTER_NAME    = EARTH
REF_FRAME      = TEME
TIME_SYSTEM    = UTC
MEAN_ELEMENT_THEORY = SGP/SGP4

EPOCH          = 2025-11-04T08:07:46.208064
MEAN_MOTION    = 12.50372496
ECCENTRICITY   = .12314753
INCLINATION    = 82.5916
RA_OF_ASC_NODE = 253.6638
ARG_OF_PERICENTER = 111.3038
MEAN_ANOMALY   = 262.3851

EPHEMERIS_TYPE = 0
CLASSIFICATION_TYPE = U
NORAD_CAT_ID   = 20262
ELEMENT_SET_NO = 999
REV_AT_EPOCH   = 64448
BSTAR          = .70568895E-4
MEAN_MOTION_DOT = .267E-5
MEAN_MOTION_DDOT = 0

